STARLINK-6043           
1 56464U 23064S   26068.59330289 -.00000682  00000+0 -49377-4 0  9992
2 56464  70.0007 144.6208 0003210 270.9566  89.1225 14.98324758155231
LEMUR-2-LIA-MARTIN      
1 63248U 25052AQ  26068.70341042  .00006911  00000+0  60828-3 0  9993
2 63248  97.6996 322.6614 0003817 139.7155 220.4350 14.96805944 53795
